EUTELSAT QUANTUM        
1 49056U 21069B   25244.90739073  .00000128  00000+0  00000+0 0  9996
2 49056   0.0517 292.0377 0001991 252.5207 171.1065  1.00272349 15030
EUTELSAT KONNECT VHTS   
1 53765U 22110A   25244.88223013  .00000019  00000+0  00000+0 0  9994
2 53765   0.0537 104.1981 0002920  37.0989 160.2971  1.00269024  3931
EUTELSAT HOTBIRD 13F    
1 54048U 22134A   25244.52729564  .00000090  00000+0  00000+0 0  9997
2 54048   0.0585 291.7455 0001920  77.1309 174.8959  1.00272605 10482
EUTELSAT HOTBIRD 13G    
1 54225U 22146A   25244.81289648  .00000089  00000+0  00000+0 0  9991
2 54225   0.0532 235.7885 0002384 297.1203 113.9531  1.00269367  4572
EUTELSAT 10B            
1 54259U 22157A   25244.92405912  .00000071  00000+0  00000+0 0  9997
2 54259   0.0542 102.4024 0001784 353.6411 227.9650  1.00271998 10126
EUTELSAT 36D            
1 59346U 24059A   25244.88517082  .00000000  00000+0  00000+0 0  9991
2 59346   0.0247 137.0923 0000322  14.3281 184.3841  1.00270258  5259
